OPS 3165 (DSP 5)        
1 08482U 75118A   26087.83423889  .00000123  00000+0  00000+0 0  9996
2 08482   2.4988 260.0284 0034088  26.5911 221.8198  1.00471453 25647
RADUGA 1                
1 08513U 75123A   26087.84527134 -.00000125  00000+0  00000+0 0  9999
2 08513   3.0097 267.8200 0004169 297.8252   1.9807  1.00246924194005
TITAN 3C TRANSTAGE R/B  
1 08516U 75118C   26087.00022856 -.00000166  00000+0  00000+0 0  9990
2 08516   2.4782 260.3567 0011270 212.7599 146.6319  1.00557321 24965
CTS                     
1 08585U 76004A   26087.66699389 -.00000119  00000+0  00000+0 0  9992
2 08585   4.1377 273.1890 0010896 285.8428 124.3680  1.00200530121493
INTELSAT 4A-F2          
1 08620U 76010A   26087.82695887 -.00000232  00000+0  00000+0 0  9992
2 08620   8.0714 304.4436 0006245 315.9698 208.3499  0.99694092619818
LES-8                   
1 08746U 76023A   26086.38333890 -.00000125  00000+0  00000+0 0  9999
2 08746  22.2473  38.0721 0031903 157.0271  24.0314  1.00269363128866
LES-9                   
1 08747U 76023B   26086.38342557 -.00000129  00000+0  00000+0 0  9994
2 08747  22.2088  38.0840 0023604 181.0771   0.4878  1.00275400128853
COMSTAR 1               
1 08838U 76042A   26087.53187998 -.00000276  00000+0  00000+0 0  9993
2 08838   8.1407 305.1967 0005372   1.0596   6.4529  0.99821662119772
TITAN 3C TRANSTAGE R/B  
1 08918U 76059C   26087.10282517  .00000106  00000+0  00000+0 0  9997
2 08918   2.9380 263.1689 0007910 272.8321  86.6139  1.00552720 24637
PALAPA 1                
1 09009U 76066A   26087.56533344 -.00000328  00000+0  00000+0 0  9991
2 09009   8.0613 305.5726 0002180 253.5823 294.1218  1.00079061127130
COMSTAR 2               
1 09047U 76073A   26087.69845403  .00000077  00000+0  00000+0 0  9997
2 09047   8.0898 305.6820 0001457  27.0262 160.8435  0.99968147 46409
RADUGA 2                
1 09416U 76092A   26087.77116767 -.00000005  00000+0  00000+0 0  9993
2 09416   3.6847 270.8236 0029429  38.4609 217.9560  1.00272134128533
KIKU-2 (ETS-II)         
1 09852U 77014A   26087.79205443 -.00000114  00000+0  00000+0 0  9995
2 09852   5.4761 284.0628 0001390  75.7412 280.2024  1.00024937126416
TITAN 3C TRANSTAGE R/B  
1 09855U 77007C   26087.60621103  .00000060  00000+0  00000+0 0  9994
2 09855   3.6011 269.2956 0017169  46.0349 313.7116  1.00312678 24555
PALAPA 2                
1 09862U 77018A   26087.70218072 -.00000068  00000+0  00000+0 0  9991
2 09862   8.8206 310.8261 0003632  96.8407 106.0733  1.00024477142305
RADUGA 3                
1 10159U 77071A   26087.76752765  .00000107  00000+0  00000+0 0  9992
2 10159   4.3239 274.6011 0008366 304.0812 288.5009  1.00324456176237
SIRIO                   
1 10294U 77080A   26087.65116479 -.00000126  00000+0  00000+0 0  9998
2 10294   7.4037 299.7649 0005858 149.0629  47.3002  1.00270999117116
