[{"OBJECT_NAME":"OPS 3165 (DSP 5)","OBJECT_ID":"1975-118A","EPOCH":"2026-03-28T20:01:18.240096","MEAN_MOTION":1.00471453,"ECCENTRICITY":0.0034088,"INCLINATION":2.4988,"RA_OF_ASC_NODE":260.0284,"ARG_OF_PERICENTER":26.5911,"MEAN_ANOMALY":221.8198,"EPHEMERIS_TYPE":0,"CLASSIFICATION_TYPE":"U","NORAD_CAT_ID":8482,"ELEMENT_SET_NO":999,"REV_AT_EPOCH":2564,"BSTAR":0,"MEAN_MOTION_DOT":1.23e-6,"MEAN_MOTION_DDOT":0},{"OBJECT_NAME":"RADUGA 1","OBJECT_ID":"1975-123A","EPOCH":"2026-03-28T20:17:11.443776","MEAN_MOTION":1.00246924,"ECCENTRICITY":0.0004169,"INCLINATION":3.0097,"RA_OF_ASC_NODE":267.82,"ARG_OF_PERICENTER":297.8252,"MEAN_ANOMALY":1.9807,"EPHEMERIS_TYPE":0,"CLASSIFICATION_TYPE":"U","NORAD_CAT_ID":8513,"ELEMENT_SET_NO":999,"REV_AT_EPOCH":19400,"BSTAR":0,"MEAN_MOTION_DOT":-1.25e-6,"MEAN_MOTION_DDOT":0},{"OBJECT_NAME":"TITAN 3C TRANSTAGE R/B","OBJECT_ID":"1975-118C","EPOCH":"2026-03-28T00:00:19.747584","MEAN_MOTION":1.00557321,"ECCENTRICITY":0.00112701,"INCLINATION":2.4782,"RA_OF_ASC_NODE":260.3567,"ARG_OF_PERICENTER":212.7599,"MEAN_ANOMALY":146.6319,"EPHEMERIS_TYPE":0,"CLASSIFICATION_TYPE":"U","NORAD_CAT_ID":8516,"ELEMENT_SET_NO":999,"REV_AT_EPOCH":2496,"BSTAR":0,"MEAN_MOTION_DOT":-1.66e-6,"MEAN_MOTION_DDOT":0},{"OBJECT_NAME":"CTS","OBJECT_ID":"1976-004A","EPOCH":"2026-03-28T16:00:28.272096","MEAN_MOTION":1.0020053,"ECCENTRICITY":0.0010896,"INCLINATION":4.1377,"RA_OF_ASC_NODE":273.189,"ARG_OF_PERICENTER":285.8428,"MEAN_ANOMALY":124.368,"EPHEMERIS_TYPE":0,"CLASSIFICATION_TYPE":"U","NORAD_CAT_ID":8585,"ELEMENT_SET_NO":999,"REV_AT_EPOCH":12149,"BSTAR":0,"MEAN_MOTION_DOT":-1.19e-6,"MEAN_MOTION_DDOT":0},{"OBJECT_NAME":"INTELSAT 4A-F2","OBJECT_ID":"1976-010A","EPOCH":"2026-03-28T19:50:49.246368","MEAN_MOTION":0.99694092,"ECCENTRICITY":0.0006245,"INCLINATION":8.0714,"RA_OF_ASC_NODE":304.4436,"ARG_OF_PERICENTER":315.9698,"MEAN_ANOMALY":208.3499,"EPHEMERIS_TYPE":0,"CLASSIFICATION_TYPE":"U","NORAD_CAT_ID":8620,"ELEMENT_SET_NO":999,"REV_AT_EPOCH":61981,"BSTAR":0,"MEAN_MOTION_DOT":-2.32e-6,"MEAN_MOTION_DDOT":0},{"OBJECT_NAME":"LES-8","OBJECT_ID":"1976-023A","EPOCH":"2026-03-27T09:12:00.480960","MEAN_MOTION":1.00269363,"ECCENTRICITY":0.00319032,"INCLINATION":22.2473,"RA_OF_ASC_NODE":38.0721,"ARG_OF_PERICENTER":157.0271,"MEAN_ANOMALY":24.0314,"EPHEMERIS_TYPE":0,"CLASSIFICATION_TYPE":"U","NORAD_CAT_ID":8746,"ELEMENT_SET_NO":999,"REV_AT_EPOCH":12886,"BSTAR":0,"MEAN_MOTION_DOT":-1.25e-6,"MEAN_MOTION_DDOT":0},{"OBJECT_NAME":"LES-9","OBJECT_ID":"1976-023B","EPOCH":"2026-03-27T09:12:07.969248","MEAN_MOTION":1.002754,"ECCENTRICITY":0.0023604,"INCLINATION":22.2088,"RA_OF_ASC_NODE":38.084,"ARG_OF_PERICENTER":181.0771,"MEAN_ANOMALY":0.4878,"EPHEMERIS_TYPE":0,"CLASSIFICATION_TYPE":"U","NORAD_CAT_ID":8747,"ELEMENT_SET_NO":999,"REV_AT_EPOCH":12885,"BSTAR":0,"MEAN_MOTION_DOT":-1.29e-6,"MEAN_MOTION_DDOT":0},{"OBJECT_NAME":"COMSTAR 1","OBJECT_ID":"1976-042A","EPOCH":"2026-03-28T12:45:54.430272","MEAN_MOTION":0.99821662,"ECCENTRICITY":0.0005372,"INCLINATION":8.1407,"RA_OF_ASC_NODE":305.1967,"ARG_OF_PERICENTER":1.0596,"MEAN_ANOMALY":6.4529,"EPHEMERIS_TYPE":0,"CLASSIFICATION_TYPE":"U","NORAD_CAT_ID":8838,"ELEMENT_SET_NO":999,"REV_AT_EPOCH":11977,"BSTAR":0,"MEAN_MOTION_DOT":-2.76e-6,"MEAN_MOTION_DDOT":0},{"OBJECT_NAME":"TITAN 3C TRANSTAGE R/B","OBJECT_ID":"1976-059C","EPOCH":"2026-03-28T02:28:04.094688","MEAN_MOTION":1.0055272,"ECCENTRICITY":0.00079106,"INCLINATION":2.938,"RA_OF_ASC_NODE":263.1689,"ARG_OF_PERICENTER":272.8321,"MEAN_ANOMALY":86.6139,"EPHEMERIS_TYPE":0,"CLASSIFICATION_TYPE":"U","NORAD_CAT_ID":8918,"ELEMENT_SET_NO":999,"REV_AT_EPOCH":2463,"BSTAR":0,"MEAN_MOTION_DOT":1.06e-6,"MEAN_MOTION_DDOT":0},{"OBJECT_NAME":"PALAPA 1","OBJECT_ID":"1976-066A","EPOCH":"2026-03-28T13:34:04.809216","MEAN_MOTION":1.00079061,"ECCENTRICITY":0.000218,"INCLINATION":8.0613,"RA_OF_ASC_NODE":305.5726,"ARG_OF_PERICENTER":253.5823,"MEAN_ANOMALY":294.1218,"EPHEMERIS_TYPE":0,"CLASSIFICATION_TYPE":"U","NORAD_CAT_ID":9009,"ELEMENT_SET_NO":999,"REV_AT_EPOCH":12713,"BSTAR":0,"MEAN_MOTION_DOT":-3.28e-6,"MEAN_MOTION_DDOT":0},{"OBJECT_NAME":"COMSTAR 2","OBJECT_ID":"1976-073A","EPOCH":"2026-03-28T16:45:46.428192","MEAN_MOTION":0.99968147,"ECCENTRICITY":0.0001457,"INCLINATION":8.0898,"RA_OF_ASC_NODE":305.682,"ARG_OF_PERICENTER":27.0262,"MEAN_ANOMALY":160.8435,"EPHEMERIS_TYPE":0,"CLASSIFICATION_TYPE":"U","NORAD_CAT_ID":9047,"ELEMENT_SET_NO":999,"REV_AT_EPOCH":4640,"BSTAR":0,"MEAN_MOTION_DOT":7.7e-7,"MEAN_MOTION_DDOT":0},{"OBJECT_NAME":"RADUGA 2","OBJECT_ID":"1976-092A","EPOCH":"2026-03-28T18:30:28.886688","MEAN_MOTION":1.00272134,"ECCENTRICITY":0.0029429,"INCLINATION":3.6847,"RA_OF_ASC_NODE":270.8236,"ARG_OF_PERICENTER":38.4609,"MEAN_ANOMALY":217.956,"EPHEMERIS_TYPE":0,"CLASSIFICATION_TYPE":"U","NORAD_CAT_ID":9416,"ELEMENT_SET_NO":999,"REV_AT_EPOCH":12853,"BSTAR":0,"MEAN_MOTION_DOT":-5.0e-8,"MEAN_MOTION_DDOT":0},{"OBJECT_NAME":"KIKU-2 (ETS-II)","OBJECT_ID":"1977-014A","EPOCH":"2026-03-28T19:00:33.502752","MEAN_MOTION":1.00024937,"ECCENTRICITY":0.000139,"INCLINATION":5.4761,"RA_OF_ASC_NODE":284.0628,"ARG_OF_PERICENTER":75.7412,"MEAN_ANOMALY":280.2024,"EPHEMERIS_TYPE":0,"CLASSIFICATION_TYPE":"U","NORAD_CAT_ID":9852,"ELEMENT_SET_NO":999,"REV_AT_EPOCH":12641,"BSTAR":0,"MEAN_MOTION_DOT":-1.14e-6,"MEAN_MOTION_DDOT":0},{"OBJECT_NAME":"TITAN 3C TRANSTAGE R/B","OBJECT_ID":"1977-007C","EPOCH":"2026-03-28T14:32:56.632992","MEAN_MOTION":1.00312678,"ECCENTRICITY":0.0017169,"INCLINATION":3.6011,"RA_OF_ASC_NODE":269.2956,"ARG_OF_PERICENTER":46.0349,"MEAN_ANOMALY":313.7116,"EPHEMERIS_TYPE":0,"CLASSIFICATION_TYPE":"U","NORAD_CAT_ID":9855,"ELEMENT_SET_NO":999,"REV_AT_EPOCH":2455,"BSTAR":0,"MEAN_MOTION_DOT":6.0e-7,"MEAN_MOTION_DDOT":0},{"OBJECT_NAME":"PALAPA 2","OBJECT_ID":"1977-018A","EPOCH":"2026-03-28T16:51:08.414208","MEAN_MOTION":1.00024477,"ECCENTRICITY":0.0003632,"INCLINATION":8.8206,"RA_OF_ASC_NODE":310.8261,"ARG_OF_PERICENTER":96.8407,"MEAN_ANOMALY":106.0733,"EPHEMERIS_TYPE":0,"CLASSIFICATION_TYPE":"U","NORAD_CAT_ID":9862,"ELEMENT_SET_NO":999,"REV_AT_EPOCH":14230,"BSTAR":0,"MEAN_MOTION_DOT":-6.8e-7,"MEAN_MOTION_DDOT":0},{"OBJECT_NAME":"RADUGA 3","OBJECT_ID":"1977-071A","EPOCH":"2026-03-28T18:25:14.388960","MEAN_MOTION":1.00324456,"ECCENTRICITY":0.0008366,"INCLINATION":4.3239,"RA_OF_ASC_NODE":274.6011,"ARG_OF_PERICENTER":304.0812,"MEAN_ANOMALY":288.5009,"EPHEMERIS_TYPE":0,"CLASSIFICATION_TYPE":"U","NORAD_CAT_ID":10159,"ELEMENT_SET_NO":999,"REV_AT_EPOCH":17623,"BSTAR":0,"MEAN_MOTION_DOT":1.07e-6,"MEAN_MOTION_DDOT":0},{"OBJECT_NAME":"SIRIO","OBJECT_ID":"1977-080A","EPOCH":"2026-03-28T15:37:40.637856","MEAN_MOTION":1.00270999,"ECCENTRICITY":0.0005858,"INCLINATION":7.4037,"RA_OF_ASC_NODE":299.7649,"ARG_OF_PERICENTER":149.0629,"MEAN_ANOMALY":47.3002,"EPHEMERIS_TYPE":0,"CLASSIFICATION_TYPE":"U","NORAD_CAT_ID":10294,"ELEMENT_SET_NO":999,"REV_AT_EPOCH":11711,"BSTAR":0,"MEAN_MOTION_DOT":-1.26e-6,"MEAN_MOTION_DDOT":0}]
